[{"OBJECT_NAME":"PERSEUS-M2","OBJECT_ID":"2014-033AD","EPOCH":"2026-03-09T23:04:40.733184","MEAN_MOTION":14.95162748,"ECCENTRICITY":0.00103419,"INCLINATION":97.987,"RA_OF_ASC_NODE":17.5706,"ARG_OF_PERICENTER":270.5936,"MEAN_ANOMALY":89.4099,"EPHEMERIS_TYPE":0,"CLASSIFICATION_TYPE":"U","NORAD_CAT_ID":40037,"ELEMENT_SET_NO":999,"REV_AT_EPOCH":63595,"BSTAR":0.00023993519,"MEAN_MOTION_DOT":2.576e-5,"MEAN_MOTION_DDOT":0},{"OBJECT_NAME":"COSMOS 434 DEB","OBJECT_ID":"1971-069C","EPOCH":"2026-03-09T06:41:44.243520","MEAN_MOTION":14.88540959,"ECCENTRICITY":0.00573215,"INCLINATION":49.5268,"RA_OF_ASC_NODE":92.2564,"ARG_OF_PERICENTER":343.1408,"MEAN_ANOMALY":16.762,"EPHEMERIS_TYPE":0,"CLASSIFICATION_TYPE":"U","NORAD_CAT_ID":5426,"ELEMENT_SET_NO":999,"REV_AT_EPOCH":87280,"BSTAR":0.00069493899,"MEAN_MOTION_DOT":6.493e-5,"MEAN_MOTION_DDOT":0}]
